NORAD_CAT_ID,OBJECT_NAME,OBJECT_TYPE,EPOCH,MEAN_MOTION,ECCENTRICITY,INCLINATION,RA_OF_ASC_NODE,ARG_OF_PERICENTER,MEAN_ANOMALY,BSTAR,MEAN_MOTION_DOT,MEAN_MOTION_DDOT,TLE_LINE0,TLE_LINE1,TLE_LINE2,SEMIMAJOR_AXIS,PERIOD,APOGEE,PERIGEE,DECAYED
52357.0,STARLINK-3821,PAYLOAD,2024-04-30 01:14:56,15.08821571,0.000156,53.2174,5.6459,91.4312,268.6858,-0.00013921,-2.502e-05,0.0,0 STARLINK-3821,1 52357U 22045AC  24121.05204391 -.00002502  00000-0 -13921-3 0  9999,2 52357  53.2174   5.6459 0001560  91.4312 268.6858 15.08821571113339,6917.937,95.439,540.881,538.723,0.0
52357.0,STARLINK-3821,PAYLOAD,2024-04-30 09:11:52,15.08831074,0.0001633,53.2184,4.1593,92.4027,267.7152,-8.7548e-05,-1.681e-05,0.0,0 STARLINK-3821,1 52357U 22045AC  24121.38324187 -.00001681  00000-0 -87548-4 0  9995,2 52357  53.2184   4.1593 0001633  92.4027 267.7152 15.08831074113389,6917.908,95.438,540.902,538.643,0.0
52357.0,STARLINK-3821,PAYLOAD,2024-04-30 20:19:33,15.08845837,0.0001512,53.2188,2.0776,96.4396,263.6768,9.1586e-05,1.17e-05,0.0,0 STARLINK-3821,1 52357U 22045AC  24121.84691522  .00001170  00000-0  91586-4 0  9994,2 52357  53.2188   2.0776 0001512  96.4396 263.6768 15.08845837113450,6917.863,95.437,540.774,538.682,0.0
52357.0,STARLINK-3821,PAYLOAD,2024-04-30 21:54:56,15.08850182,0.0001544,53.219,1.7803,95.2741,264.8428,3.6286e-05,2.9e-06,0.0,0 STARLINK-3821,1 52357U 22045AC  24121.91315337  .00000290  00000-0  36286-4 0  9997,2 52357  53.2190   1.7803 0001544  95.2741 264.8428 15.08850182113462,6917.849,95.437,540.782,538.646,0.0
52357.0,STARLINK-3821,PAYLOAD,2024-04-30 23:30:19,15.0885265,0.0001515,53.2191,1.4829,94.8666,265.2499,9.8825e-05,1.286e-05,0.0,0 STARLINK-3821,1 52357U 22045AC  24121.97939244  .00001286  00000-0  98825-4 0  9995,2 52357  53.2191   1.4829 0001515  94.8666 265.2499 15.08852650113473,6917.842,95.437,540.755,538.659,0.0
52357.0,STARLINK-3821,PAYLOAD,2024-05-01 21:45:44,15.08839225,0.0001613,53.2182,357.3173,90.982,269.1357,0.00029445,4.401e-05,0.0,0 STARLINK-3821,1 52357U 22045AC  24122.90676411  .00004401  00000-0  29445-3 0  9996,2 52357  53.2182 357.3173 0001613  90.9820 269.1357 15.08839225113611,6917.883,95.438,540.864,538.632,0.0
52357.0,STARLINK-3821,PAYLOAD,2024-05-02 15:14:58,15.08850744,0.0001719,53.2183,354.0488,81.0598,279.0589,1.9221e-06,-2.58e-06,0.0,0 STARLINK-3821,1 52357U 22045AC  24123.63539852 -.00000258  00000-0  19221-5 0  9994,2 52357  53.2183 354.0488 0001719  81.0598 279.0589 15.08850744113723,6917.848,95.437,540.902,538.523,0.0
52357.0,STARLINK-3821,PAYLOAD,2024-05-03 08:44:12,15.08853704,0.0001255,53.2165,350.7758,101.6954,258.4179,0.00017822,2.551e-05,0.0,0 STARLINK-3821,1 52357U 22045AC  24124.36403108  .00002551  00000-0  17822-3 0  9999,2 52357  53.2165 350.7758 0001255 101.6954 258.4179 15.08853704113833,6917.839,95.437,540.572,538.835,0.0
52357.0,STARLINK-3821,PAYLOAD,2024-05-03 15:05:45,15.08847907,0.0001622,53.2187,349.5875,92.1389,267.9789,0.00013979,1.938e-05,0.0,0 STARLINK-3821,1 52357U 22045AC  24124.62899585  .00001938  00000-0  13979-3 0  9993,2 52357  53.2187 349.5875 0001622  92.1389 267.9789 15.08847907113871,6917.856,95.437,540.843,538.599,0.0
52357.0,STARLINK-3821,PAYLOAD,2024-05-03 21:27:17,15.08848897,0.0001441,53.2186,348.3968,99.7674,260.3481,2.2797e-05,7.5e-07,0.0,0 STARLINK-3821,1 52357U 22045AC  24124.89395377  .00000075  00000-0  22797-4 0  9992,2 52357  53.2186 348.3968 0001441  99.7674 260.3481 15.08848897113919,6917.853,95.437,540.715,538.721,0.0
52357.0,STARLINK-3821,PAYLOAD,2024-05-04 21:18:05,15.08836974,0.0001224,53.2173,343.9355,94.6143,265.4989,-7.3252e-05,-1.453e-05,0.0,0 STARLINK-3821,1 52357U 22045AC  24125.88756114 -.00001453  00000-0 -73252-4 0  9997,2 52357  53.2173 343.9355 0001224  94.6143 265.4989 15.08836974114069,6917.89,95.438,540.601,538.908,0.0
52357.0,STARLINK-3821,PAYLOAD,2024-05-05 14:47:19,15.08838465,0.0001191,53.217,340.6654,95.5048,264.608,0.00011451,1.535e-05,0.0,0 STARLINK-3821,1 52357U 22045AC  24126.61620239  .00001535  00000-0  11451-3 0  9998,2 52357  53.2170 340.6654 0001191  95.5048 264.6080 15.08838465114171,6917.885,95.438,540.574,538.926,0.0
52357.0,STARLINK-3821,PAYLOAD,2024-05-05 21:08:52,15.08847749,0.0001201,53.2173,339.4765,91.7284,268.3845,0.00022244,3.255e-05,0.0,0 STARLINK-3821,1 52357U 22045AC  24126.88115811  .00003255  00000-0  22244-3 0  9995,2 52357  53.2173 339.4765 0001201  91.7284 268.3845 15.08847749114215,6917.857,95.437,540.553,538.891,0.0
52357.0,STARLINK-3821,PAYLOAD,2024-05-06 06:41:10,15.08846515,0.000115,53.2168,337.6925,88.6359,271.4765,0.00016822,2.391e-05,0.0,0 STARLINK-3821,1 52357U 22045AC  24127.27859859  .00002391  00000-0  16822-3 0  9991,2 52357  53.2168 337.6925 0001150  88.6359 271.4765 15.08846515114270,6917.86,95.437,540.521,538.93,0.0
52357.0,STARLINK-3821,PAYLOAD,2024-05-06 20:59:39,15.0884844,0.000111,53.2169,335.0171,82.0057,278.1061,0.00025305,3.743e-05,0.0,0 STARLINK-3821,1 52357U 22045AC  24127.87475759  .00003743  00000-0  25305-3 0  9998,2 52357  53.2169 335.0171 0001110  82.0057 278.1061 15.08848440114367,6917.855,95.437,540.487,538.952,0.0
52357.0,STARLINK-3821,PAYLOAD,2024-05-07 06:31:57,15.08847706,0.0001099,53.2167,333.2332,86.3883,273.7235,0.00016635,2.361e-05,0.0,0 STARLINK-3821,1 52357U 22045AC  24128.27219651  .00002361  00000-0  16635-3 0  9991,2 52357  53.2167 333.2332 0001099  86.3883 273.7235 15.08847706114429,6917.857,95.437,540.482,538.962,0.0
52357.0,STARLINK-3821,PAYLOAD,2024-05-07 20:50:26,15.08832657,0.0001177,53.2169,330.5557,80.0283,280.0842,-0.00012468,-2.271e-05,0.0,0 STARLINK-3821,1 52357U 22045AC  24128.86836540 -.00002271  00000-0 -12468-3 0  9990,2 52357  53.2169 330.5557 0001177  80.0283 280.0842 15.08832657114516,6917.903,95.438,540.582,538.954,0.0
52357.0,STARLINK-3821,PAYLOAD,2024-05-08 12:44:18,15.08834838,0.0001232,53.2178,327.5826,91.2051,268.9082,1.4434e-05,-5.8e-07,0.0,0 STARLINK-3821,1 52357U 22045AC  24129.53076839 -.00000058  00000-0  14434-4 0  9998,2 52357  53.2178 327.5826 0001232  91.2051 268.9082 15.08834838114615,6917.896,95.438,540.613,538.909,0.0
52357.0,STARLINK-3821,PAYLOAD,2024-05-08 20:41:14,15.08840298,0.00012,53.2173,326.0955,85.9401,274.1728,0.00019803,2.865e-05,0.0,0 STARLINK-3821,1 52357U 22045AC  24129.86196770  .00002865  00000-0  19803-3 0  9992,2 52357  53.2173 326.0955 0001200  85.9401 274.1728 15.08840298114669,6917.879,95.438,540.575,538.914,0.0
52357.0,STARLINK-3821,PAYLOAD,2024-05-09 06:13:32,15.08844464,0.0001236,53.2174,324.3114,88.0156,272.0978,0.00047261,7.243e-05,0.0,0 STARLINK-3821,1 52357U 22045AC  24130.25940969  .00007243  00000-0  47261-3 0  9998,2 52357  53.2174 324.3114 0001236  88.0156 272.0978 15.08844464114728,6917.867,95.437,540.587,538.877,0.0
52357.0,STARLINK-3821,PAYLOAD,2024-05-09 20:32:00,15.08860006,0.0001109,53.2164,321.635,83.5559,276.5559,0.00077524,0.00012078,0.0,0 STARLINK-3821,1 52357U 22045AC  24130.85556510  .00012078  00000-0  77524-3 0  9996,2 52357  53.2164 321.6350 0001109  83.5559 276.5559 15.08860006114819,6917.819,95.436,540.451,538.917,0.0
52357.0,STARLINK-3821,PAYLOAD,2024-05-10 12:25:52,15.08847637,0.0001306,53.216,318.6614,89.7924,270.3218,0.00015487,2.178e-05,0.0,0 STARLINK-3821,1 52357U 22045AC  24131.51796631  .00002178  00000-0  15487-3 0  9990,2 52357  53.2160 318.6614 0001306  89.7924 270.3218 15.08847637114917,6917.857,95.437,540.626,538.819,0.0
52357.0,STARLINK-3821,PAYLOAD,2024-05-10 18:47:24,15.08845856,0.0001263,53.2177,317.4718,96.1042,264.0094,0.00015437,2.17e-05,0.0,0 STARLINK-3821,1 52357U 22045AC  24131.78292746  .00002170  00000-0  15437-3 0  9994,2 52357  53.2177 317.4718 0001263  96.1042 264.0094 15.08845856114959,6917.862,95.437,540.601,538.854,0.0
52357.0,STARLINK-3821,PAYLOAD,2024-05-11 12:16:36,15.08911169,8.38e-05,53.2172,314.1975,91.1115,268.9973,0.0015885,0.00025133,0.0,0 STARLINK-3821,1 52357U 22045AC  24132.51153823  .00025133  00000-0  15885-2 0  9998,2 52357  53.2172 314.1975 0000838  91.1115 268.9973 15.08911169115069,6917.663,95.433,540.108,538.948,0.0
52357.0,STARLINK-3821,PAYLOAD,2024-05-11 18:38:08,15.08911843,0.0001342,53.2171,313.01,99.3151,260.7993,0.00050625,7.794e-05,0.0,0 STARLINK-3821,1 52357U 22045AC  24132.77649063  .00007794  00000-0  50625-3 0  9997,2 52357  53.2171 313.0100 0001342  99.3151 260.7993 15.08911843115103,6917.661,95.433,540.454,538.597,0.0
52357.0,STARLINK-3821,PAYLOAD,2024-05-11 21:48:55,15.08823981,0.0001967,53.2173,312.4148,94.0536,266.0681,-0.0016348,-0.00026201,0.0,0 STARLINK-3821,1 52357U 22045AC  24132.90897618 -.00026201  00000-0 -16348-2 0  9992,2 52357  53.2173 312.4148 0001967  94.0536 266.0681 15.08823981115122,6917.929,95.439,541.155,538.434,0.0
52357.0,STARLINK-3821,PAYLOAD,2024-05-12 12:07:29,15.08646993,8.78e-05,53.2169,309.7398,104.5063,255.6027,0.0012326,0.0001928,0.0,0 STARLINK-3821,1 52357U 22045AC  24133.50520601  .00019280  00000-0  12326-2 0  9993,2 52357  53.2169 309.7398 0000878 104.5063 255.6027 15.08646993115219,6918.47,95.45,540.943,539.728,0.0
52357.0,STARLINK-3821,PAYLOAD,2024-05-12 18:29:05,15.08635593,0.0001533,53.2152,308.5511,119.3283,240.7863,0.00024357,3.57e-05,0.0,0 STARLINK-3821,1 52357U 22045AC  24133.77020157  .00003570  00000-0  24357-3 0  9996,2 52357  53.2152 308.5511 0001533 119.3283 240.7863 15.08635593115253,6918.505,95.45,541.431,539.31,0.0
52357.0,STARLINK-3821,PAYLOAD,2024-05-12 21:39:52,15.08690258,0.0001263,53.2165,307.957,123.8362,236.2751,0.0038262,0.00060882,0.0,0 STARLINK-3821,1 52357U 22045AC  24133.90269071  .00060882  00000-0  38262-2 0  9999,2 52357  53.2165 307.9570 0001263 123.8362 236.2751 15.08690258115270,6918.338,95.447,541.077,539.329,0.0
52357.0,STARLINK-3821,PAYLOAD,2024-05-13 11:58:20,15.08860178,0.0001797,53.2175,305.2784,117.4503,242.6672,0.0040568,0.00064907,0.0,0 STARLINK-3821,1 52357U 22045AC  24134.49885216  .00064907  00000-0  40568-2 0  9993,2 52357  53.2175 305.2784 0001797 117.4503 242.6672 15.08860178115360,6917.819,95.436,540.927,538.441,0.0
